CTC2_L_00353001-01
1 10000U 23377MG  26075.70045139  .00000000  00000+0  00000-0 0  9991
2 10000  45.0000   0.0000 0000000   0.0000   0.0000 13.29142335    16
CTC2_L_00353001-02
1 10001U 25275PC  26075.70045139  .00000000  00000+0  00000-0 0  9991
2 10001  45.0000   0.0000 0000000   0.0000  90.0000 13.29142335    16
CTC2_L_00353001-03
1 10002U 25400MP  26075.70045139  .00000000  00000+0  00000-0 0  9992
2 10002  45.0000   0.0000 0000000   0.0000 180.0000 13.29142335    17
CTC2_L_00353001-04
1 10003U 22137FM  26075.70045139  .00000000  00000+0  00000-0 0  9997
2 10003  45.0000   0.0000 0000000   0.0000 270.0000 13.29142335    18
CTC2_L_00353002-01
1 10004U 26673NP  26075.70045139  .00000000  00000+0  00000-0 0  9997
2 10004  45.0000  12.0000 0000000   0.0000  12.0000 13.29142335    16
CTC2_L_00353002-02
1 10005U 24596GI  26075.70045139  .00000000  00000+0  00000-0 0  9990
2 10005  45.0000  12.0000 0000000   0.0000 102.0000 13.29142335    17
CTC2_L_00353002-03
1 10006U 25505TY  26075.70045139  .00000000  00000+0  00000-0 0  9992
2 10006  45.0000  12.0000 0000000   0.0000 192.0000 13.29142335    17
CTC2_L_00353002-04
1 10007U 22546BH  26075.70045139  .00000000  00000+0  00000-0 0  9995
2 10007  45.0000  12.0000 0000000   0.0000 282.0000 13.29142335    18
CTC2_L_00353003-01
1 10008U 26625RR  26075.70045139  .00000000  00000+0  00000-0 0  9998
2 10008  45.0000  24.0000 0000000   0.0000  24.0000 13.29142335    16
CTC2_L_00353003-02
1 10009U 26274E   26075.70045139  .00000000  00000+0  00000-0 0  9999
2 10009  45.0000  24.0000 0000000   0.0000 114.0000 13.29142335    17
CTC2_L_00353003-03
1 10010U 24943SW  26075.70045139  .00000000  00000+0  00000-0 0  9992
2 10010  45.0000  24.0000 0000000   0.0000 204.0000 13.29142335    19
CTC2_L_00353003-04
1 10011U 24153BM  26075.70045139  .00000000  00000+0  00000-0 0  9996
2 10011  45.0000  24.0000 0000000   0.0000 294.0000 13.29142335    19
CTC2_L_00353004-01
1 10012U 23261IC  26075.70045139  .00000000  00000+0  00000-0 0  9996
2 10012  45.0000  36.0000 0000000   0.0000  36.0000 13.29142335    17
CTC2_L_00353004-02
1 10013U 26248DL  26075.70045139  .00000000  00000+0  00000-0 0  9995
2 10013  45.0000  36.0000 0000000   0.0000 126.0000 13.29142335    18
CTC2_L_00353004-03
1 10014U 25805AL  26075.70045139  .00000000  00000+0  00000-0 0  9994
2 10014  45.0000  36.0000 0000000   0.0000 216.0000 13.29142335    19
CTC2_L_00353004-04
1 10015U 22841M   26075.70045139  .00000000  00000+0  00000-0 0  9992
2 10015  45.0000  36.0000 0000000   0.0000 306.0000 13.29142335    10
CTC2_L_00353005-01
1 10016U 22527FR  26075.70045139  .00000000  00000+0  00000-0 0  9994
2 10016  45.0000  48.0000 0000000   0.0000  48.0000 13.29142335    17
CTC2_L_00353005-02
1 10017U 23805M   26075.70045139  .00000000  00000+0  00000-0 0  9995
2 10017  45.0000  48.0000 0000000   0.0000 138.0000 13.29142335    18
CTC2_L_00353005-03
1 10018U 26107TO  26075.70045139  .00000000  00000+0  00000-0 0  9994
2 10018  45.0000  48.0000 0000000   0.0000 228.0000 13.29142335    19
CTC2_L_00353005-04
1 10019U 26448IA  26075.70045139  .00000000  00000+0  00000-0 0  9993
2 10019  45.0000  48.0000 0000000   0.0000 318.0000 13.29142335    10
CTC2_L_00353006-01
1 10020U 25672NR  26075.70045139  .00000000  00000+0  00000-0 0  9993
2 10020  45.0000  60.0000 0000000   0.0000  60.0000 13.29142335    10
CTC2_L_00353006-02
1 10021U 25574OQ  26075.70045139  .00000000  00000+0  00000-0 0  9995
2 10021  45.0000  60.0000 0000000   0.0000 150.0000 13.29142335    11
CTC2_L_00353006-03
1 10022U 25499KS  26075.70045139  .00000000  00000+0  00000-0 0  9992
2 10022  45.0000  60.0000 0000000   0.0000 240.0000 13.29142335    12
CTC2_L_00353006-04
1 10023U 25220ME  26075.70045139  .00000000  00000+0  00000-0 0  9995
2 10023  45.0000  60.0000 0000000   0.0000 330.0000 13.29142335    13
CTC2_L_00353007-01
1 10024U 23202MN  26075.70045139  .00000000  00000+0  00000-0 0  9994
2 10024  45.0000  72.0000 0000000   0.0000  72.0000 13.29142335    10
CTC2_L_00353007-02
1 10025U 22291XV  26075.70045139  .00000000  00000+0  00000-0 0  9992
2 10025  45.0000  72.0000 0000000   0.0000 162.0000 13.29142335    11
CTC2_L_00353007-03
1 10026U 26915VW  26075.70045139  .00000000  00000+0  00000-0 0  9990
2 10026  45.0000  72.0000 0000000   0.0000 252.0000 13.29142335    12
CTC2_L_00353007-04
1 10027U 22755XV  26075.70045139  .00000000  00000+0  00000-0 0  9999
2 10027  45.0000  72.0000 0000000   0.0000 342.0000 13.29142335    13
CTC2_L_00353008-01
1 10028U 23361UD  26075.70045139  .00000000  00000+0  00000-0 0  9994
2 10028  45.0000  84.0000 0000000   0.0000  84.0000 13.29142335    10
CTC2_L_00353008-02
1 10029U 25473EO  26075.70045139  .00000000  00000+0  00000-0 0  9991
2 10029  45.0000  84.0000 0000000   0.0000 174.0000 13.29142335    11
CTC2_L_00353008-03
1 10030U 23214YY  26075.70045139  .00000000  00000+0  00000-0 0  9994
2 10030  45.0000  84.0000 0000000   0.0000 264.0000 13.29142335    13
CTC2_L_00353008-04
1 10031U 26999OW  26075.70045139  .00000000  00000+0  00000-0 0  9998
2 10031  45.0000  84.0000 0000000   0.0000 354.0000 13.29142335    14
CTC2_L_00353009-01
1 10032U 22291OT  26075.70045139  .00000000  00000+0  00000-0 0  9990
2 10032  45.0000  96.0000 0000000   0.0000  96.0000 13.29142335    11
CTC2_L_00353009-02
1 10033U 22516AY  26075.70045139  .00000000  00000+0  00000-0 0  9991
2 10033  45.0000  96.0000 0000000   0.0000 186.0000 13.29142335    12
CTC2_L_00353009-03
1 10034U 22774SJ  26075.70045139  .00000000  00000+0  00000-0 0  9998
2 10034  45.0000  96.0000 0000000   0.0000 276.0000 13.29142335    13
CTC2_L_00353009-04
1 10035U 22818OI  26075.70045139  .00000000  00000+0  00000-0 0  9998
2 10035  45.0000  96.0000 0000000   0.0000   6.0000 13.29142335    15
CTC2_L_00353010-01
1 10036U 26289LK  26075.70045139  .00000000  00000+0  00000-0 0  9995
2 10036  45.0000 108.0000 0000000   0.0000 108.0000 13.29142335    13
CTC2_L_00353010-02
1 10037U 23209NU  26075.70045139  .00000000  00000+0  00000-0 0  9995
2 10037  45.0000 108.0000 0000000   0.0000 198.0000 13.29142335    13
CTC2_L_00353010-03
1 10038U 26040ZR  26075.70045139  .00000000  00000+0  00000-0 0  9992
2 10038  45.0000 108.0000 0000000   0.0000 288.0000 13.29142335    14
CTC2_L_00353010-04
1 10039U 25450NM  26075.70045139  .00000000  00000+0  00000-0 0  9997
2 10039  45.0000 108.0000 0000000   0.0000  18.0000 13.29142335    16
CTC2_L_00353011-01
1 10040U 25366PU  26075.70045139  .00000000  00000+0  00000-0 0  9995
2 10040  45.0000 120.0000 0000000   0.0000 120.0000 13.29142335    16
CTC2_L_00353011-02
1 10041U 23127EM  26075.70045139  .00000000  00000+0  00000-0 0  9999
2 10041  45.0000 120.0000 0000000   0.0000 210.0000 13.29142335    17
CTC2_L_00353011-03
1 10042U 23198VG  26075.70045139  .00000000  00000+0  00000-0 0  9998
2 10042  45.0000 120.0000 0000000   0.0000 300.0000 13.29142335    18
CTC2_L_00353011-04
1 10043U 23112MU  26075.70045139  .00000000  00000+0  00000-0 0  9995
2 10043  45.0000 120.0000 0000000   0.0000  30.0000 13.29142335    19
CTC2_L_00353012-01
1 10044U 26417UG  26075.70045139  .00000000  00000+0  00000-0 0  9997
2 10044  45.0000 132.0000 0000000   0.0000 132.0000 13.29142335    16
CTC2_L_00353012-02
1 10045U 25271JP  26075.70045139  .00000000  00000+0  00000-0 0  9995
2 10045  45.0000 132.0000 0000000   0.0000 222.0000 13.29142335    17
CTC2_L_00353012-03
1 10046U 23898D   26075.70045139  .00000000  00000+0  00000-0 0  9999
2 10046  45.0000 132.0000 0000000   0.0000 312.0000 13.29142335    18
CTC2_L_00353012-04
1 10047U 23994N   26075.70045139  .00000000  00000+0  00000-0 0  9997
2 10047  45.0000 132.0000 0000000   0.0000  42.0000 13.29142335    19
CTC2_L_00353013-01
1 10048U 26536UK  26075.70045139  .00000000  00000+0  00000-0 0  9993
2 10048  45.0000 144.0000 0000000   0.0000 144.0000 13.29142335    16
CTC2_L_00353013-02
1 10049U 23656AI  26075.70045139  .00000000  00000+0  00000-0 0  9994
2 10049  45.0000 144.0000 0000000   0.0000 234.0000 13.29142335    17
CTC2_L_00353013-03
1 10050U 26801OW  26075.70045139  .00000000  00000+0  00000-0 0  9991
2 10050  45.0000 144.0000 0000000   0.0000 324.0000 13.29142335    19
CTC2_L_00353013-04
1 10051U 22270NR  26075.70045139  .00000000  00000+0  00000-0 0  9998
2 10051  45.0000 144.0000 0000000   0.0000  54.0000 13.29142335    10
CTC2_L_00353014-01
1 10052U 25035KG  26075.70045139  .00000000  00000+0  00000-0 0  9991
2 10052  45.0000 156.0000 0000000   0.0000 156.0000 13.29142335    17
CTC2_L_00353014-02
1 10053U 24060XM  26075.70045139  .00000000  00000+0  00000-0 0  9999
2 10053  45.0000 156.0000 0000000   0.0000 246.0000 13.29142335    18
CTC2_L_00353014-03
1 10054U 25127TC  26075.70045139  .00000000  00000+0  00000-0 0  9995
2 10054  45.0000 156.0000 0000000   0.0000 336.0000 13.29142335    19
CTC2_L_00353014-04
1 10055U 23696ER  26075.70045139  .00000000  00000+0  00000-0 0  9995
2 10055  45.0000 156.0000 0000000   0.0000  66.0000 13.29142335    10
CTC2_L_00353015-01
1 10056U 23364TH  26075.70045139  .00000000  00000+0  00000-0 0  9998
2 10056  45.0000 168.0000 0000000   0.0000 168.0000 13.29142335    17
CTC2_L_00353015-02
1 10057U 26405JE  26075.70045139  .00000000  00000+0  00000-0 0  9998
2 10057  45.0000 168.0000 0000000   0.0000 258.0000 13.29142335    18
CTC2_L_00353015-03
1 10058U 22925CZ  26075.70045139  .00000000  00000+0  00000-0 0  9992
2 10058  45.0000 168.0000 0000000   0.0000 348.0000 13.29142335    19
CTC2_L_00353015-04
1 10059U 24709MW  26075.70045139  .00000000  00000+0  00000-0 0  9995
2 10059  45.0000 168.0000 0000000   0.0000  78.0000 13.29142335    10
CTC2_L_00353016-01
1 10060U 26306NL  26075.70045139  .00000000  00000+0  00000-0 0  9992
2 10060  45.0000 180.0000 0000000   0.0000 180.0000 13.29142335    10
CTC2_L_00353016-02
1 10061U 24865UD  26075.70045139  .00000000  00000+0  00000-0 0  9991
2 10061  45.0000 180.0000 0000000   0.0000 270.0000 13.29142335    11
